{
    "links": {
        "self": "http://www.neowsapp.com/rest/v1/neo/3795055?api_key=iIulBulltgU6a56xZRHN4H3l9WmuAYTsLGpBGhQ2"
    },
    "id": "3795055",
    "neo_reference_id": "3795055",
    "name": "(2017 YR4)",
    "designation": "2017 YR4",
    "nasa_jpl_url": "http://ssd.jpl.nasa.gov/sbdb.cgi?sstr=3795055",
    "absolute_magnitude_h": 24.4,
    "estimated_diameter": {
        "kilometers": {
            "estimated_diameter_min": 0.0350392641,
            "estimated_diameter_max": 0.0783501764
        },
        "meters": {
            "estimated_diameter_min": 35.0392641108,
            "estimated_diameter_max": 78.3501764334
        },
        "miles": {
            "estimated_diameter_min": 0.0217723826,
            "estimated_diameter_max": 0.0486845275
        },
        "feet": {
            "estimated_diameter_min": 114.9582192654,
            "estimated_diameter_max": 257.0543928497
        }
    },
    "is_potentially_hazardous_asteroid": false,
    "close_approach_data": [
        {
            "close_approach_date": "1954-10-17",
            "close_approach_date_full": "1954-Oct-17 16:00",
            "epoch_date_close_approach": -479894400000,
            "relative_velocity": {
                "kilometers_per_second": "16.5642925359",
                "kilometers_per_hour": "59631.4531291277",
                "miles_per_hour": "37052.6659734849"
            },
            "miss_distance": {
                "astronomical": "0.3569400395",
                "lunar": "138.8496753655",
                "kilometers": "53397469.626915865",
                "miles": "33179649.065394337"
            },
            "orbiting_body": "Earth"
        },
        {
            "close_approach_date": "2007-10-13",
            "close_approach_date_full": "2007-Oct-13 13:27",
            "epoch_date_close_approach": 1192282020000,
            "relative_velocity": {
                "kilometers_per_second": "19.046432147",
                "kilometers_per_hour": "68567.1557293566",
                "miles_per_hour": "42604.9640697216"
            },
            "miss_distance": {
                "astronomical": "0.4390925635",
                "lunar": "170.8070072015",
                "kilometers": "65687312.232439745",
                "miles": "40816203.148748681"
            },
            "orbiting_body": "Earth"
        },
        {
            "close_approach_date": "2017-12-25",
            "close_approach_date_full": "2017-Dec-25 18:07",
            "epoch_date_close_approach": 1514225220000,
            "relative_velocity": {
                "kilometers_per_second": "6.7111151324",
                "kilometers_per_hour": "24160.0144767197",
                "miles_per_hour": "15012.0934397151"
            },
            "miss_distance": {
                "astronomical": "0.0470194229",
                "lunar": "18.2905555081",
                "kilometers": "7034005.514469223",
                "miles": "4370728.3533243574"
            },
            "orbiting_body": "Earth"
        },
        {
            "close_approach_date": "2023-01-27",
            "close_approach_date_full": "2023-Jan-27 08:46",
            "epoch_date_close_approach": 1674809160000,
            "relative_velocity": {
                "kilometers_per_second": "17.3243429636",
                "kilometers_per_hour": "62367.6346690277",
                "miles_per_hour": "38752.8227753189"
            },
            "miss_distance": {
                "astronomical": "0.3773673327",
                "lunar": "146.7958924203",
                "kilometers": "56453349.179501349",
                "miles": "35078484.5691986562"
            },
            "orbiting_body": "Earth"
        },
        {
            "close_approach_date": "2071-02-02",
            "close_approach_date_full": "2071-Feb-02 06:44",
            "epoch_date_close_approach": 3190085040000,
            "relative_velocity": {
                "kilometers_per_second": "20.1579048536",
                "kilometers_per_hour": "72568.4574728999",
                "miles_per_hour": "45091.2173669805"
            },
            "miss_distance": {
                "astronomical": "0.4727806467",
                "lunar": "183.9116715663",
                "kilometers": "70726977.723542529",
                "miles": "43947706.0751997402"
            },
            "orbiting_body": "Earth"
        }
    ],
    "orbital_data": {
        "orbit_id": "4",
        "orbit_determination_date": "2018-01-21 06:55:38",
        "first_observation_date": "2017-12-24",
        "last_observation_date": "2018-01-20",
        "data_arc_in_days": 27,
        "observations_used": 67,
        "orbit_uncertainty": "7",
        "minimum_orbit_intersection": ".0286068",
        "jupiter_tisserand_invariant": "3.866",
        "epoch_osculation": "2459000.5",
        "eccentricity": ".4565481024767044",
        "semi_major_axis": "1.855084285041584",
        "inclination": "3.013003960539621",
        "ascending_node_longitude": "96.63225249177921",
        "orbital_period": "922.8771569664788",
        "perihelion_distance": "1.008149074771495",
        "perihelion_argument": "340.0762205120682",
        "aphelion_distance": "2.702019495311673",
        "perihelion_time": "2459023.708479632870",
        "mean_anomaly": "350.9467336960679",
        "mean_motion": ".3900844194511536",
        "equinox": "J2000",
        "orbit_class": {
            "orbit_class_type": "APO",
            "orbit_class_description": "Near-Earth asteroid orbits which cross the Earth’s orbit similar to that of 1862 Apollo",
            "orbit_class_range": "a (semi-major axis) > 1.0 AU; q (perihelion) < 1.017 AU"
        }
    },
    "is_sentry_object": false
}